{"type": "FeatureCollection", "features": [ {"type": "Feature", "properties": {"norad_id": 41785, "name": "ALSAT 1B", "group": "resource", "lat": -11.107395157748291, "lon": -170.8147203972546, "alt_km": 662.9098330716615, "timestamp": "2025-12-25T11:37:44.079126+00:00", "meta": {"OBJECT_NAME": "ALSAT 1B", "OBJECT_ID": "2016-059C", "EPOCH": "2025-12-25T04:14:21.148224", "MEAN_MOTION": 14.7208693, "ECCENTRICITY": 0.0010739, "INCLINATION": 97.7807, "RA_OF_ASC_NODE": 10.4289, "ARG_OF_PERICENTER": 68.6421, "MEAN_ANOMALY": 291.5932, "EPHEMERIS_TYPE": 0, "CLASSIFICATION_TYPE": "U", "NORAD_CAT_ID": 41785, "ELEMENT_SET_NO": 999, "REV_AT_EPOCH": 49497, "BSTAR": 2.7024e-05, "MEAN_MOTION_DOT": 1.23e-06, "MEAN_MOTION_DDOT": 0}, "tle": {"line1": "1 41785U 16059C   25359.17663366  .00000123  00000+0  27024-4 0  9992", "line2": "2 41785  97.7807  10.4289 0010739  68.6421 291.5932 14.72086930494970"}}, "geometry": {"type": "Point", "coordinates": [-170.8147203972546, -11.107395157748291]}}, {"type": "Feature", "properties": {"norad_id": 41787, "name": "PATHFINDER 1", "group": "resource", "lat": 51.30187296809358, "lon": -8.20331516436503, "alt_km": 644.2650396968083, "timestamp": "2025-12-25T11:37:44.079140+00:00", "meta": {"OBJECT_NAME": "PATHFINDER 1", "OBJECT_ID": "2016-059E", "EPOCH": "2025-12-24T23:56:16.778688", "MEAN_MOTION": 14.67342006, "ECCENTRICITY": 0.0029607, "INCLINATION": 97.8138, "RA_OF_ASC_NODE": 1.2022, "ARG_OF_PERICENTER": 43.7796, "MEAN_ANOMALY": 316.5749, "EPHEMERIS_TYPE": 0, "CLASSIFICATION_TYPE": "U", "NORAD_CAT_ID": 41787, "ELEMENT_SET_NO": 999, "REV_AT_EPOCH": 49416, "BSTAR": 0.00015377, "MEAN_MOTION_DOT": 8.27e-06, "MEAN_MOTION_DDOT": 0}, "tle": {"line1": "1 41787U 16059E   25358.99741642  .00000827  00000+0  15377-3 0  9995", "line2": "2 41787  97.8138   1.2022 0029607  43.7796 316.5749 14.67342006494164"}}, "geometry": {"type": "Point", "coordinates": [-8.20331516436503, 51.30187296809358]}}, {"type": "Feature", "properties": {"norad_id": 41790, "name": "SCATSAT 1", "group": "resource", "lat": -37.702626353839364, "lon": -130.0424915623357, "alt_km": 664.4050370305176, "timestamp": "2025-12-25T11:37:44.079151+00:00", "meta": {"OBJECT_NAME": "SCATSAT 1", "OBJECT_ID": "2016-059H", "EPOCH": "2025-12-25T02:31:56.911584", "MEAN_MOTION": 14.78975153, "ECCENTRICITY": 0.0056464, "INCLINATION": 98.1447, "RA_OF_ASC_NODE": 55.9294, "ARG_OF_PERICENTER": 89.0623, "MEAN_ANOMALY": 271.7057, "EPHEMERIS_TYPE": 0, "CLASSIFICATION_TYPE": "U", "NORAD_CAT_ID": 41790, "ELEMENT_SET_NO": 999, "REV_AT_EPOCH": 7585, "BSTAR": 0.00020344, "MEAN_MOTION_DOT": 1.486e-05, "MEAN_MOTION_DDOT": 0}, "tle": {"line1": "1 41790U 16059H   25359.10551981  .00001486  00000+0  20344-3 0  9990", "line2": "2 41790  98.1447  55.9294 0056464  89.0623 271.7057 14.78975153 75857"}}, "geometry": {"type": "Point", "coordinates": [-130.0424915623357, -37.702626353839364]}}, {"type": "Feature", "properties": {"norad_id": 41875, "name": "GOKTURK 1A", "group": "resource", "lat": -76.1458515646019, "lon": -72.83203055594487, "alt_km": 692.3314145895338, "timestamp": "2025-12-25T11:37:44.079161+00:00", "meta": {"OBJECT_NAME": "GOKTURK 1A", "OBJECT_ID": "2016-073A", "EPOCH": "2025-12-25T05:25:18.629184", "MEAN_MOTION": 14.62794925, "ECCENTRICITY": 0.0001284, "INCLINATION": 98.1426, "RA_OF_ASC_NODE": 251.4248, "ARG_OF_PERICENTER": 80.9602, "MEAN_ANOMALY": 279.1745, "EPHEMERIS_TYPE": 0, "CLASSIFICATION_TYPE": "U", "NORAD_CAT_ID": 41875, "ELEMENT_SET_NO": 999, "REV_AT_EPOCH": 48339, "BSTAR": 0.00019052, "MEAN_MOTION_DOT": 9.25e-06, "MEAN_MOTION_DDOT": 0}, "tle": {"line1": "1 41875U 16073A   25359.22591006  .00000925  00000+0  19052-3 0  9996", "line2": "2 41875  98.1426 251.4248 0001284  80.9602 279.1745 14.62794925483394"}}, "geometry": {"type": "Point", "coordinates": [-72.83203055594487, -76.1458515646019]}}, {"type": "Feature", "properties": {"norad_id": 41877, "name": "RESOURCESAT-2A", "group": "resource", "lat": -62.53222999132441, "lon": -128.0171473188277, "alt_km": 826.2347116520368, "timestamp": "2025-12-25T11:37:44.079171+00:00", "meta": {"OBJECT_NAME": "RESOURCESAT-2A", "OBJECT_ID": "2016-074A", "EPOCH": "2025-12-25T03:43:43.476384", "MEAN_MOTION": 14.21604744, "ECCENTRICITY": 0.0001631, "INCLINATION": 98.7739, "RA_OF_ASC_NODE": 68.9383, "ARG_OF_PERICENTER": 200.9015, "MEAN_ANOMALY": 159.2095, "EPHEMERIS_TYPE": 0, "CLASSIFICATION_TYPE": "U", "NORAD_CAT_ID": 41877, "ELEMENT_SET_NO": 999, "REV_AT_EPOCH": 46957, "BSTAR": 1.4493e-05, "MEAN_MOTION_DOT": -1.3e-07, "MEAN_MOTION_DDOT": 0}, "tle": {"line1": "1 41877U 16074A   25359.15536431 -.00000013  00000+0  14493-4 0  9996", "line2": "2 41877  98.7739  68.9383 0001631 200.9015 159.2095 14.21604744469572"}}, "geometry": {"type": "Point", "coordinates": [-128.0171473188277, -62.53222999132441]}}, {"type": "Feature", "properties": {"norad_id": 41948, "name": "CARTOSAT-2D", "group": "resource", "lat": 43.10474720545271, "lon": 49.76437787642896, "alt_km": 503.7172946868841, "timestamp": "2025-12-25T11:37:44.079181+00:00", "meta": {"OBJECT_NAME": "CARTOSAT-2D", "OBJECT_ID": "2017-008A", "EPOCH": "2025-12-25T03:32:01.589568", "MEAN_MOTION": 15.19185361, "ECCENTRICITY": 0.0005437, "INCLINATION": 97.437, "RA_OF_ASC_NODE": 56.4547, "ARG_OF_PERICENTER": 118.3655, "MEAN_ANOMALY": 241.8128, "EPHEMERIS_TYPE": 0, "CLASSIFICATION_TYPE": "U", "NORAD_CAT_ID": 41948, "ELEMENT_SET_NO": 999, "REV_AT_EPOCH": 49115, "BSTAR": 0.00016319, "MEAN_MOTION_DOT": 3.366e-05, "MEAN_MOTION_DDOT": 0}, "tle": {"line1": "1 41948U 17008A   25359.14724062  .00003366  00000+0  16319-3 0  9992", "line2": "2 41948  97.4370  56.4547 0005437 118.3655 241.8128 15.19185361491153"}}, "geometry": {"type": "Point", "coordinates": [49.76437787642896, 43.10474720545271]}}, {"type": "Feature", "properties": {"norad_id": 42063, "name": "SENTINEL-2B", "group": "resource", "lat": -80.4125444141552, "lon": 134.9710881242986, "alt_km": 797.1783903500454, "timestamp": "2025-12-25T11:37:44.079191+00:00", "meta": {"OBJECT_NAME": "SENTINEL-2B", "OBJECT_ID": "2017-013A", "EPOCH": "2025-12-25T05:18:56.499264", "MEAN_MOTION": 14.30815179, "ECCENTRICITY": 0.0001174, "INCLINATION": 98.5699, "RA_OF_ASC_NODE": 71.4916, "ARG_OF_PERICENTER": 91.2223, "MEAN_ANOMALY": 268.9095, "EPHEMERIS_TYPE": 0, "CLASSIFICATION_TYPE": "U", "NORAD_CAT_ID": 42063, "ELEMENT_SET_NO": 999, "REV_AT_EPOCH": 45976, "BSTAR": 9.0141e-06, "MEAN_MOTION_DOT": -2e-07, "MEAN_MOTION_DDOT": 0}, "tle": {"line1": "1 42063U 17013A   25359.22148726 -.00000020  00000+0  90141-5 0  9995", "line2": "2 42063  98.5699  71.4916 0001174  91.2223 268.9095 14.30815179459762"}}, "geometry": {"type": "Point", "coordinates": [134.9710881242986, -80.4125444141552]}}, {"type": "Feature", "properties": {"norad_id": 42767, "name": "CARTOSAT-2E", "group": "resource", "lat": -46.58232819539567, "lon": 64.85600559552411, "alt_km": 516.4545812434335, "timestamp": "2025-12-25T11:37:44.079201+00:00", "meta": {"OBJECT_NAME": "CARTOSAT-2E", "OBJECT_ID": "2017-036C", "EPOCH": "2025-12-25T03:55:55.235136", "MEAN_MOTION": 15.19192496, "ECCENTRICITY": 0.0002595, "INCLINATION": 97.4537, "RA_OF_ASC_NODE": 56.5866, "ARG_OF_PERICENTER": 175.5395, "MEAN_ANOMALY": 184.5863, "EPHEMERIS_TYPE": 0, "CLASSIFICATION_TYPE": "U", "NORAD_CAT_ID": 42767, "ELEMENT_SET_NO": 999, "REV_AT_EPOCH": 47172, "BSTAR": 0.00011911, "MEAN_MOTION_DOT": 2.438e-05, "MEAN_MOTION_DDOT": 0}, "tle": {"line1": "1 42767U 17036C   25359.16383374  .00002438  00000+0  11911-3 0  9994", "line2": "2 42767  97.4537  56.5866 0002595 175.5395 184.5863 15.19192496471728"}}, "geometry": {"type": "Point", "coordinates": [64.85600559552411, -46.58232819539567]}}, {"type": "Feature", "properties": {"norad_id": 42920, "name": "FORMOSAT-5", "group": "resource", "lat": 65.3987475516268, "lon": -87.99355805470398, "alt_km": 722.4586930284477, "timestamp": "2025-12-25T11:37:44.079211+00:00", "meta": {"OBJECT_NAME": "FORMOSAT-5", "OBJECT_ID": "2017-049A", "EPOCH": "2025-12-25T04:29:13.243776", "MEAN_MOTION": 14.50767525, "ECCENTRICITY": 0.0009843, "INCLINATION": 98.2438, "RA_OF_ASC_NODE": 73.2551, "ARG_OF_PERICENTER": 258.8782, "MEAN_ANOMALY": 101.1306, "EPHEMERIS_TYPE": 0, "CLASSIFICATION_TYPE": "U", "NORAD_CAT_ID": 42920, "ELEMENT_SET_NO": 999, "REV_AT_EPOCH": 44144, "BSTAR": 7.0023e-05, "MEAN_MOTION_DOT": 2.32e-06, "MEAN_MOTION_DDOT": 0}, "tle": {"line1": "1 42920U 17049A   25359.18695884  .00000232  00000+0  70023-4 0  9993", "line2": "2 42920  98.2438  73.2551 0009843 258.8782 101.1306 14.50767525441441"}}, "geometry": {"type": "Point", "coordinates": [-87.99355805470398, 65.3987475516268]}}, {"type": "Feature", "properties": {"norad_id": 42969, "name": "SENTINEL-5P", "group": "resource", "lat": 25.057185636129603, "lon": 122.1002037647813, "alt_km": 825.8421599993017, "timestamp": "2025-12-25T11:37:44.079222+00:00", "meta": {"OBJECT_NAME": "SENTINEL-5P", "OBJECT_ID": "2017-064A", "EPOCH": "2025-12-25T02:26:42.531360", "MEAN_MOTION": 14.19520507, "ECCENTRICITY": 0.0001061, "INCLINATION": 98.7802, "RA_OF_ASC_NODE": 297.5773, "ARG_OF_PERICENTER": 91.0415, "MEAN_ANOMALY": 269.0882, "EPHEMERIS_TYPE": 0, "CLASSIFICATION_TYPE": "U", "NORAD_CAT_ID": 42969, "ELEMENT_SET_NO": 999, "REV_AT_EPOCH": 42486, "BSTAR": 6.4598e-05, "MEAN_MOTION_DOT": 9.2e-07, "MEAN_MOTION_DDOT": 0}, "tle": {"line1": "1 42969U 17064A   25359.10188115  .00000092  00000+0  64598-4 0  9993", "line2": "2 42969  98.7802 297.5773 0001061  91.0415 269.0882 14.19520507424867"}}, "geometry": {"type": "Point", "coordinates": [122.1002037647813, 25.057185636129603]}}]}